IRIDIUM 155             
1 43573U 18061E   24121.47118095  .00000493  00000+0  16911-3 0  9999
2 43573  86.4015  21.6976 0002279  80.8647 279.2806 14.34214057301898
IRIDIUM 154             
1 43574U 18061F   24121.45215942  .00000062  00000+0  15115-4 0  9995
2 43574  86.4017  21.8009 0002415  89.5834 270.5638 14.34216708301933
IRIDIUM 163             
1 43575U 18061G   24121.15405449  .00000402  00000+0  13649-3 0  9993
2 43575  86.4019  21.8655 0002395  88.4899 271.6572 14.34212941301865
IRIDIUM 156             
1 43576U 18061H   24120.77984396  .00000513  00000+0  17626-3 0  9996
2 43576  86.4017  22.0277 0002144  83.4984 276.6456 14.34217638301807
IRIDIUM 164             
1 43577U 18061J   24120.97011904  .00000270  00000+0  89412-4 0  9998
2 43577  86.4018  21.9765 0002054  91.5633 268.5798 14.34215754301873
IRIDIUM 159             
1 43578U 18061K   24120.79887164  .00000363  00000+0  12270-3 0  9998
2 43578  86.4013  22.0010 0002250  91.2996 268.8458 14.34217708301812
IRIDIUM 180             
1 43922U 19002A   24120.93789252  .00000069  00000+0  17744-4 0  9997
2 43922  86.3942 318.8497 0002239  90.7470 269.3982 14.34212306277446
IRIDIUM 176             
1 43923U 19002B   24121.06469487  .00000585  00000+0  88950-4 0  9998
2 43923  86.6068 318.8220 0002402  93.9494 266.1997 14.72234512284765
IRIDIUM 168             
1 43924U 19002C   24121.07108625  .00000142  00000+0  43728-4 0  9997
2 43924  86.3943 318.8494 0002113  91.6323 268.5114 14.34214633277447
IRIDIUM 173             
1 43925U 19002D   24121.47701449  .00000086  00000+0  23709-4 0  9999
2 43925  86.3940 318.6003 0002195  90.7373 269.4074 14.34216234277493
IRIDIUM 169             
1 43926U 19002E   24121.13183321  .00000562  00000+0  17712-3 0  9991
2 43926  86.4249 350.3573 0003858  59.0642 301.0935 14.38605334278369
IRIDIUM 172             
1 43927U 19002F   24121.54044214  .00000043  00000+0  82386-5 0  9999
2 43927  86.3941 318.5794 0002125  91.9764 268.1675 14.34215773277504
IRIDIUM 175             
1 43928U 19002G   24120.92297916  .00000724  00000+0  11082-3 0  9999
2 43928  86.1465 294.7398 0002358  88.7385 271.4101 14.72243528284735
IRIDIUM 171             
1 43929U 19002H   24121.10279953  .00000132  00000+0  40203-4 0  9993
2 43929  86.3951 318.9828 0001922  90.4809 269.6607 14.34216005277439
IRIDIUM 170             
1 43930U 19002J   24121.07087491  .00000568  00000+0  86166-4 0  9996
2 43930  86.6069 318.8241 0002312  86.6630 273.4852 14.72234856284771
IRIDIUM 167             
1 43931U 19002K   24120.95692057  .00000085  00000+0  23245-4 0  9996
2 43931  86.3941 318.8390 0002111  89.4445 270.6993 14.34215671277415
IRIDIUM 181             
1 56726U 23068S   24121.20945531  .00000607  00000+0  17345-3 0  9999
2 56726  86.8680  10.1159 0002048  83.5179 276.6256 14.43603498 50212
IRIDIUM 177             
1 56727U 23068T   24120.89011405  .00001775  00000+0  23021-3 0  9993
2 56727  86.1978 338.3038 0001961  95.8521 264.2924 14.80216928 51234
IRIDIUM 174             
1 56728U 23068U   24120.88463861  .00001846  00000+0  23937-3 0  9995
2 56728  86.1986 338.4061 0002678  83.5697 276.5829 14.80242837 51233
IRIDIUM 178             
1 56729U 23068V   24120.67647015  .00002008  00000+0  26089-3 0  9990
2 56729  86.5806 353.6640 0003116  84.8819 275.2758 14.80216240 51202
IRIDIUM 179             
1 56730U 23068W   24120.67099425  .00001982  00000+0  25746-3 0  9997
2 56730  86.6822 357.1874 0002798  87.2375 272.9167 14.80226550 51203
